ICEYE-X6                
1 46497U 20068M   26175.24104682  .00002374  00000+0  17403-3 0  9997
2 46497  98.0981 169.2499 0009099  72.3043 287.9174 15.04558695314298
ICEYE-X65               
1 66300U 25248H   26174.84012732  .00001969  00000+0  14276-3 0  9990
2 66300  45.4060  99.1911 0004381  62.4327 297.7000 15.07777647 36528
ICEYE-X66               
1 66301U 25248J   26174.52446798  .00002193  00000+0  15207-3 0  9994
2 66301  45.4020 100.1584 0004289  53.9178 306.2101 15.09017443 36464
ICEYE-X67               
1 66302U 25248K   26174.81370017  .00001979  00000+0  13890-3 0  9994
2 66302  45.4046  98.2024 0005720  62.7433 297.4031 15.08997070 36524
ICEYE-X59               
1 66752U 25276CQ  26175.14646710  .00004132  00000+0  32330-3 0  9991
2 66752  97.4335 246.1465 0001725  84.1740 275.9682 15.01563344 31315
ICEYE-X60               
1 66753U 25276CR  26175.21030403  .00005208  00000+0  31280-3 0  9994
2 66753  97.4195 247.6717 0002622  39.5308 320.6113 15.11314347 31424
ICEYE-X61               
1 66754U 25276CS  26175.21152445  .00002969  00000+0  14730-3 0  9998
2 66754  97.4202 248.5707 0002167 343.5454  16.5710 15.18483382 31480
ICEYE-X62               
1 66755U 25276CT  26175.15375210  .00001865  00000+0  11842-3 0  9994
2 66755  97.4201 247.1439 0002200  21.8284 338.3039 15.10051288 31388
ICEYE-X63               
1 67372U 26004K   26175.27558588  .00000741  00000+0  86046-4 0  9995
2 67372  97.8000 173.8041 0005782 101.7661 258.4205 14.88310763 24350
ICEYE-X64               
1 67373U 26004L   26175.25188943  .00001075  00000+0  12321-3 0  9993
2 67373  97.8015 173.7084 0007517 108.3228 251.8807 14.87937082 24345
