{
 "generated_at": "2026-06-25T08:23:36Z",
 "sources": [
  {
   "name": "CelesTrak",
   "url": "https://celestrak.org/NORAD/elements/",
   "license": "frei verfügbar; Attribution. Ursprünglich USSPACECOM/Space-Track."
  },
  {
   "name": "GCAT (J. McDowell, planet4589.org)",
   "url": "https://planet4589.org/space/gcat/",
   "license": "CC-BY 4.0"
  }
 ],
 "satellites": [
  {
   "norad": 66752,
   "name": "ICEYE-X59",
   "intl": "2025-276CQ",
   "group": "sar",
   "gcat": {
    "class": "B",
    "category": "IMG-R",
    "owner": "ELKED",
    "state": "GR"
   },
   "omm": {
    "OBJECT_NAME": "ICEYE-X59",
    "OBJECT_ID": "2025-276CQ",
    "EPOCH": "2026-06-24T03:30:54.757440",
    "MEAN_MOTION": 15.01563344,
    "ECCENTRICITY": 0.00017253,
    "INCLINATION": 97.4335,
    "RA_OF_ASC_NODE": 246.1465,
    "ARG_OF_PERICENTER": 84.174,
    "MEAN_ANOMALY": 275.9682,
    "EPHEMERIS_TYPE": 0,
    "CLASSIFICATION_TYPE": "U",
    "NORAD_CAT_ID": 66752,
    "ELEMENT_SET_NO": 999,
    "REV_AT_EPOCH": 3131,
    "BSTAR": 0.00032330121,
    "MEAN_MOTION_DOT": 0.00004132,
    "MEAN_MOTION_DDOT": 0
   }
  },
  {
   "norad": 46497,
   "name": "ICEYE-X6",
   "intl": "2020-068M",
   "group": "sar",
   "gcat": {
    "class": "B",
    "category": "IMG-R",
    "owner": "ICEYE",
    "state": "FI"
   },
   "omm": {
    "OBJECT_NAME": "ICEYE-X6",
    "OBJECT_ID": "2020-068M",
    "EPOCH": "2026-06-24T05:47:06.445248",
    "MEAN_MOTION": 15.04558695,
    "ECCENTRICITY": 0.00090996,
    "INCLINATION": 98.0981,
    "RA_OF_ASC_NODE": 169.2499,
    "ARG_OF_PERICENTER": 72.3043,
    "MEAN_ANOMALY": 287.9174,
    "EPHEMERIS_TYPE": 0,
    "CLASSIFICATION_TYPE": "U",
    "NORAD_CAT_ID": 46497,
    "ELEMENT_SET_NO": 999,
    "REV_AT_EPOCH": 31429,
    "BSTAR": 0.00017402669,
    "MEAN_MOTION_DOT": 0.00002374,
    "MEAN_MOTION_DDOT": 0
   }
  },
  {
   "norad": 66753,
   "name": "ICEYE-X60",
   "intl": "2025-276CR",
   "group": "sar",
   "gcat": {
    "class": "B",
    "category": "IMG-R",
    "owner": "ELKED",
    "state": "GR"
   },
   "omm": {
    "OBJECT_NAME": "ICEYE-X60",
    "OBJECT_ID": "2025-276CR",
    "EPOCH": "2026-06-24T05:02:50.268192",
    "MEAN_MOTION": 15.11314347,
    "ECCENTRICITY": 0.00026221,
    "INCLINATION": 97.4195,
    "RA_OF_ASC_NODE": 247.6717,
    "ARG_OF_PERICENTER": 39.5308,
    "MEAN_ANOMALY": 320.6113,
    "EPHEMERIS_TYPE": 0,
    "CLASSIFICATION_TYPE": "U",
    "NORAD_CAT_ID": 66753,
    "ELEMENT_SET_NO": 999,
    "REV_AT_EPOCH": 3142,
    "BSTAR": 0.00031280419,
    "MEAN_MOTION_DOT": 0.00005208,
    "MEAN_MOTION_DDOT": 0
   }
  },
  {
   "norad": 66754,
   "name": "ICEYE-X61",
   "intl": "2025-276CS",
   "group": "sar",
   "gcat": {
    "class": "B",
    "category": "IMG-R",
    "owner": "ICEYE",
    "state": "FI"
   },
   "omm": {
    "OBJECT_NAME": "ICEYE-X61",
    "OBJECT_ID": "2025-276CS",
    "EPOCH": "2026-06-24T05:04:35.712480",
    "MEAN_MOTION": 15.18483382,
    "ECCENTRICITY": 0.00021673,
    "INCLINATION": 97.4202,
    "RA_OF_ASC_NODE": 248.5707,
    "ARG_OF_PERICENTER": 343.5454,
    "MEAN_ANOMALY": 16.571,
    "EPHEMERIS_TYPE": 0,
    "CLASSIFICATION_TYPE": "U",
    "NORAD_CAT_ID": 66754,
    "ELEMENT_SET_NO": 999,
    "REV_AT_EPOCH": 3148,
    "BSTAR": 0.00014729541,
    "MEAN_MOTION_DOT": 0.00002969,
    "MEAN_MOTION_DDOT": 0
   }
  },
  {
   "norad": 66755,
   "name": "ICEYE-X62",
   "intl": "2025-276CT",
   "group": "sar",
   "gcat": {
    "class": "B",
    "category": "IMG-R",
    "owner": "MON/WKL",
    "state": "PL"
   },
   "omm": {
    "OBJECT_NAME": "ICEYE-X62",
    "OBJECT_ID": "2025-276CT",
    "EPOCH": "2026-06-24T03:41:24.181440",
    "MEAN_MOTION": 15.10051288,
    "ECCENTRICITY": 0.00022009,
    "INCLINATION": 97.4201,
    "RA_OF_ASC_NODE": 247.1439,
    "ARG_OF_PERICENTER": 21.8284,
    "MEAN_ANOMALY": 338.3039,
    "EPHEMERIS_TYPE": 0,
    "CLASSIFICATION_TYPE": "U",
    "NORAD_CAT_ID": 66755,
    "ELEMENT_SET_NO": 999,
    "REV_AT_EPOCH": 3138,
    "BSTAR": 0.000118416,
    "MEAN_MOTION_DOT": 0.00001865,
    "MEAN_MOTION_DDOT": 0
   }
  },
  {
   "norad": 67372,
   "name": "ICEYE-X63",
   "intl": "2026-004K",
   "group": "sar",
   "gcat": {
    "class": "B",
    "category": "IMG-R",
    "owner": "ICEYE",
    "state": "FI"
   },
   "omm": {
    "OBJECT_NAME": "ICEYE-X63",
    "OBJECT_ID": "2026-004K",
    "EPOCH": "2026-06-24T06:36:50.620032",
    "MEAN_MOTION": 14.88310763,
    "ECCENTRICITY": 0.00057828,
    "INCLINATION": 97.8,
    "RA_OF_ASC_NODE": 173.8041,
    "ARG_OF_PERICENTER": 101.7661,
    "MEAN_ANOMALY": 258.4205,
    "EPHEMERIS_TYPE": 0,
    "CLASSIFICATION_TYPE": "U",
    "NORAD_CAT_ID": 67372,
    "ELEMENT_SET_NO": 999,
    "REV_AT_EPOCH": 2435,
    "BSTAR": 0.000086045767,
    "MEAN_MOTION_DOT": 0.00000741,
    "MEAN_MOTION_DDOT": 0
   }
  },
  {
   "norad": 67373,
   "name": "ICEYE-X64",
   "intl": "2026-004L",
   "group": "sar",
   "gcat": {
    "class": "D",
    "category": "IMG-R",
    "owner": "PUOL",
    "state": "FI"
   },
   "omm": {
    "OBJECT_NAME": "ICEYE-X64",
    "OBJECT_ID": "2026-004L",
    "EPOCH": "2026-06-24T06:02:43.246752",
    "MEAN_MOTION": 14.87937082,
    "ECCENTRICITY": 0.00075178,
    "INCLINATION": 97.8015,
    "RA_OF_ASC_NODE": 173.7084,
    "ARG_OF_PERICENTER": 108.3228,
    "MEAN_ANOMALY": 251.8807,
    "EPHEMERIS_TYPE": 0,
    "CLASSIFICATION_TYPE": "U",
    "NORAD_CAT_ID": 67373,
    "ELEMENT_SET_NO": 999,
    "REV_AT_EPOCH": 2434,
    "BSTAR": 0.00012321354,
    "MEAN_MOTION_DOT": 0.00001075,
    "MEAN_MOTION_DDOT": 0
   }
  },
  {
   "norad": 66300,
   "name": "ICEYE-X65",
   "intl": "2025-248H",
   "group": "sar",
   "gcat": {
    "class": "B",
    "category": "IMG-R",
    "owner": "SP42",
    "state": "UAE"
   },
   "omm": {
    "OBJECT_NAME": "ICEYE-X65",
    "OBJECT_ID": "2025-248H",
    "EPOCH": "2026-06-23T20:09:47.000448",
    "MEAN_MOTION": 15.07777647,
    "ECCENTRICITY": 0.00043819,
    "INCLINATION": 45.406,
    "RA_OF_ASC_NODE": 99.1911,
    "ARG_OF_PERICENTER": 62.4327,
    "MEAN_ANOMALY": 297.7,
    "EPHEMERIS_TYPE": 0,
    "CLASSIFICATION_TYPE": "U",
    "NORAD_CAT_ID": 66300,
    "ELEMENT_SET_NO": 999,
    "REV_AT_EPOCH": 3652,
    "BSTAR": 0.00014276007,
    "MEAN_MOTION_DOT": 0.00001969,
    "MEAN_MOTION_DDOT": 0
   }
  },
  {
   "norad": 66301,
   "name": "ICEYE-X66",
   "intl": "2025-248J",
   "group": "sar",
   "gcat": {
    "class": "B",
    "category": "IMG-R",
    "owner": "SP42",
    "state": "UAE"
   },
   "omm": {
    "OBJECT_NAME": "ICEYE-X66",
    "OBJECT_ID": "2025-248J",
    "EPOCH": "2026-06-23T12:35:14.033472",
    "MEAN_MOTION": 15.09017443,
    "ECCENTRICITY": 0.00042891,
    "INCLINATION": 45.402,
    "RA_OF_ASC_NODE": 100.1584,
    "ARG_OF_PERICENTER": 53.9178,
    "MEAN_ANOMALY": 306.2101,
    "EPHEMERIS_TYPE": 0,
    "CLASSIFICATION_TYPE": "U",
    "NORAD_CAT_ID": 66301,
    "ELEMENT_SET_NO": 999,
    "REV_AT_EPOCH": 3646,
    "BSTAR": 0.00015207363,
    "MEAN_MOTION_DOT": 0.00002193,
    "MEAN_MOTION_DDOT": 0
   }
  },
  {
   "norad": 66302,
   "name": "ICEYE-X67",
   "intl": "2025-248K",
   "group": "sar",
   "gcat": {
    "class": "B",
    "category": "IMG-R",
    "owner": "SP42",
    "state": "UAE"
   },
   "omm": {
    "OBJECT_NAME": "ICEYE-X67",
    "OBJECT_ID": "2025-248K",
    "EPOCH": "2026-06-23T19:31:43.694688",
    "MEAN_MOTION": 15.0899707,
    "ECCENTRICITY": 0.00057201,
    "INCLINATION": 45.4046,
    "RA_OF_ASC_NODE": 98.2024,
    "ARG_OF_PERICENTER": 62.7433,
    "MEAN_ANOMALY": 297.4031,
    "EPHEMERIS_TYPE": 0,
    "CLASSIFICATION_TYPE": "U",
    "NORAD_CAT_ID": 66302,
    "ELEMENT_SET_NO": 999,
    "REV_AT_EPOCH": 3652,
    "BSTAR": 0.00013889546,
    "MEAN_MOTION_DOT": 0.00001979,
    "MEAN_MOTION_DDOT": 0
   }
  }
 ]
}
